CCSDS_OMM_VERS = 2.0
CREATION_DATE  = 
ORIGINATOR     = 

OBJECT_NAME    = STARLINK-35816
OBJECT_ID      = 2025-263Q
CENTER_NAME    = EARTH
REF_FRAME      = TEME
TIME_SYSTEM    = UTC
MEAN_ELEMENT_THEORY = SGP/SGP4

EPOCH          = 2025-11-25T12:00:05.998752
MEAN_MOTION    = 15.92634309
ECCENTRICITY   = .0001799
INCLINATION    = 42.9987
RA_OF_ASC_NODE = 228.5168
ARG_OF_PERICENTER = 266.5783
MEAN_ANOMALY   = 202.7843

EPHEMERIS_TYPE = 0
CLASSIFICATION_TYPE = U
NORAD_CAT_ID   = 66499
ELEMENT_SET_NO = 999
REV_AT_EPOCH   = 286
BSTAR          = -.44973E-2
MEAN_MOTION_DOT = -.1592903E-1
MEAN_MOTION_DDOT = .71304E-3

CCSDS_OMM_VERS = 2.0
CREATION_DATE  = 
ORIGINATOR     = 

OBJECT_NAME    = STARLINK-35894
OBJECT_ID      = 2025-263R
CENTER_NAME    = EARTH
REF_FRAME      = TEME
TIME_SYSTEM    = UTC
MEAN_ELEMENT_THEORY = SGP/SGP4

EPOCH          = 2025-11-25T12:00:05.998752
MEAN_MOTION    = 15.92574219
ECCENTRICITY   = .0001803
INCLINATION    = 42.9987
RA_OF_ASC_NODE = 228.5234
ARG_OF_PERICENTER = 267.8998
MEAN_ANOMALY   = 198.8919

EPHEMERIS_TYPE = 0
CLASSIFICATION_TYPE = U
NORAD_CAT_ID   = 66500
ELEMENT_SET_NO = 999
REV_AT_EPOCH   = 286
BSTAR          = -.43631E-2
MEAN_MOTION_DOT = -.1541125E-1
MEAN_MOTION_DDOT = .6706E-3

CCSDS_OMM_VERS = 2.0
CREATION_DATE  = 
ORIGINATOR     = 

OBJECT_NAME    = STARLINK-35897
OBJECT_ID      = 2025-263S
CENTER_NAME    = EARTH
REF_FRAME      = TEME
TIME_SYSTEM    = UTC
MEAN_ELEMENT_THEORY = SGP/SGP4

EPOCH          = 2025-11-25T12:00:05.998752
MEAN_MOTION    = 15.92682462
ECCENTRICITY   = .0001911
INCLINATION    = 42.9988
RA_OF_ASC_NODE = 228.5102
ARG_OF_PERICENTER = 270.3594
MEAN_ANOMALY   = 201.6434

EPHEMERIS_TYPE = 0
CLASSIFICATION_TYPE = U
NORAD_CAT_ID   = 66501
ELEMENT_SET_NO = 999
REV_AT_EPOCH   = 286
BSTAR          = -.46191E-2
MEAN_MOTION_DOT = -.1639611E-1
MEAN_MOTION_DDOT = .75236E-3

CCSDS_OMM_VERS = 2.0
CREATION_DATE  = 
ORIGINATOR     = 

OBJECT_NAME    = STARLINK-35922
OBJECT_ID      = 2025-263T
CENTER_NAME    = EARTH
REF_FRAME      = TEME
TIME_SYSTEM    = UTC
MEAN_ELEMENT_THEORY = SGP/SGP4

EPOCH          = 2025-11-25T12:00:05.998752
MEAN_MOTION    = 15.92779969
ECCENTRICITY   = .0001788
INCLINATION    = 42.9990
RA_OF_ASC_NODE = 228.4893
ARG_OF_PERICENTER = 271.8265
MEAN_ANOMALY   = 208.4898

EPHEMERIS_TYPE = 0
CLASSIFICATION_TYPE = U
NORAD_CAT_ID   = 66502
ELEMENT_SET_NO = 999
REV_AT_EPOCH   = 286
BSTAR          = -.47351E-2
MEAN_MOTION_DOT = -.1688697E-1
MEAN_MOTION_DDOT = .79518E-3

CCSDS_OMM_VERS = 2.0
CREATION_DATE  = 
ORIGINATOR     = 

OBJECT_NAME    = STARLINK-35917
OBJECT_ID      = 2025-263U
CENTER_NAME    = EARTH
REF_FRAME      = TEME
TIME_SYSTEM    = UTC
MEAN_ELEMENT_THEORY = SGP/SGP4

EPOCH          = 2025-11-25T06:00:04.000320
MEAN_MOTION    = 15.93619469
ECCENTRICITY   = .00017264
INCLINATION    = 42.9985
RA_OF_ASC_NODE = 230.0344
ARG_OF_PERICENTER = 273.5222
MEAN_ANOMALY   = 216.7909

EPHEMERIS_TYPE = 0
CLASSIFICATION_TYPE = U
NORAD_CAT_ID   = 66503
ELEMENT_SET_NO = 999
REV_AT_EPOCH   = 282
BSTAR          = -.44134161E-2
MEAN_MOTION_DOT = -.1645811E-1
MEAN_MOTION_DDOT = .76465101E-3

CCSDS_OMM_VERS = 2.0
CREATION_DATE  = 
ORIGINATOR     = 

OBJECT_NAME    = STARLINK-35916
OBJECT_ID      = 2025-263V
CENTER_NAME    = EARTH
REF_FRAME      = TEME
TIME_SYSTEM    = UTC
MEAN_ELEMENT_THEORY = SGP/SGP4

EPOCH          = 2025-11-25T12:00:05.998752
MEAN_MOTION    = 15.93028828
ECCENTRICITY   = .0001641
INCLINATION    = 42.9987
RA_OF_ASC_NODE = 228.4676
ARG_OF_PERICENTER = 261.5285
MEAN_ANOMALY   = 227.2074

EPHEMERIS_TYPE = 0
CLASSIFICATION_TYPE = U
NORAD_CAT_ID   = 66504
ELEMENT_SET_NO = 999
REV_AT_EPOCH   = 286
BSTAR          = -.6434E-2
MEAN_MOTION_DOT = -.2315652E-1
MEAN_MOTION_DDOT = .144E-2

CCSDS_OMM_VERS = 2.0
CREATION_DATE  = 
ORIGINATOR     = 

OBJECT_NAME    = STARLINK-34766
OBJECT_ID      = 2025-263W
CENTER_NAME    = EARTH
REF_FRAME      = TEME
TIME_SYSTEM    = UTC
MEAN_ELEMENT_THEORY = SGP/SGP4

EPOCH          = 2025-11-25T12:00:05.998752
MEAN_MOTION    = 15.92720706
ECCENTRICITY   = .000177
INCLINATION    = 42.9990
RA_OF_ASC_NODE = 228.5020
ARG_OF_PERICENTER = 265.8940
MEAN_ANOMALY   = 209.3758

EPHEMERIS_TYPE = 0
CLASSIFICATION_TYPE = U
NORAD_CAT_ID   = 66505
ELEMENT_SET_NO = 999
REV_AT_EPOCH   = 286
BSTAR          = -.4729E-2
MEAN_MOTION_DOT = -.1681373E-1
MEAN_MOTION_DDOT = .78837E-3

CCSDS_OMM_VERS = 2.0
CREATION_DATE  = 
ORIGINATOR     = 

OBJECT_NAME    = STARLINK-34765
OBJECT_ID      = 2025-263X
CENTER_NAME    = EARTH
REF_FRAME      = TEME
TIME_SYSTEM    = UTC
MEAN_ELEMENT_THEORY = SGP/SGP4

EPOCH          = 2025-11-25T12:00:05.998752
MEAN_MOTION    = 15.92753320
ECCENTRICITY   = .0001804
INCLINATION    = 42.9990
RA_OF_ASC_NODE = 228.4964
ARG_OF_PERICENTER = 264.3833
MEAN_ANOMALY   = 213.1081

EPHEMERIS_TYPE = 0
CLASSIFICATION_TYPE = U
NORAD_CAT_ID   = 66506
ELEMENT_SET_NO = 999
REV_AT_EPOCH   = 286
BSTAR          = -.47444E-2
MEAN_MOTION_DOT = -.1689657E-1
MEAN_MOTION_DDOT = .79581E-3

CCSDS_OMM_VERS = 2.0
CREATION_DATE  = 
ORIGINATOR     = 

OBJECT_NAME    = STARLINK-34767
OBJECT_ID      = 2025-263Y
CENTER_NAME    = EARTH
REF_FRAME      = TEME
TIME_SYSTEM    = UTC
MEAN_ELEMENT_THEORY = SGP/SGP4

EPOCH          = 2025-11-25T12:00:05.998752
MEAN_MOTION    = 15.92808493
ECCENTRICITY   = .00018
INCLINATION    = 42.9993
RA_OF_ASC_NODE = 228.4811
ARG_OF_PERICENTER = 264.4731
MEAN_ANOMALY   = 219.0742

EPHEMERIS_TYPE = 0
CLASSIFICATION_TYPE = U
NORAD_CAT_ID   = 66507
ELEMENT_SET_NO = 999
REV_AT_EPOCH   = 286
BSTAR          = -.47992E-2
MEAN_MOTION_DOT = -.1713816E-1
MEAN_MOTION_DDOT = .81739E-3

CCSDS_OMM_VERS = 2.0
CREATION_DATE  = 
ORIGINATOR     = 

OBJECT_NAME    = STARLINK-35608
OBJECT_ID      = 2025-263Z
CENTER_NAME    = EARTH
REF_FRAME      = TEME
TIME_SYSTEM    = UTC
MEAN_ELEMENT_THEORY = SGP/SGP4

EPOCH          = 2025-11-25T12:00:05.998752
MEAN_MOTION    = 15.92880412
ECCENTRICITY   = .0001486
INCLINATION    = 42.9988
RA_OF_ASC_NODE = 228.4615
ARG_OF_PERICENTER = 258.5234
MEAN_ANOMALY   = 232.6419

EPHEMERIS_TYPE = 0
CLASSIFICATION_TYPE = U
NORAD_CAT_ID   = 66508
ELEMENT_SET_NO = 999
REV_AT_EPOCH   = 286
BSTAR          = -.47659E-2
MEAN_MOTION_DOT = -.170835E-1
MEAN_MOTION_DDOT = .81316E-3

CCSDS_OMM_VERS = 2.0
CREATION_DATE  = 
ORIGINATOR     = 

OBJECT_NAME    = STARLINK-35598
OBJECT_ID      = 2025-263AA
CENTER_NAME    = EARTH
REF_FRAME      = TEME
TIME_SYSTEM    = UTC
MEAN_ELEMENT_THEORY = SGP/SGP4

EPOCH          = 2025-11-25T12:00:05.998752
MEAN_MOTION    = 15.93021383
ECCENTRICITY   = .0001654
INCLINATION    = 42.9985
RA_OF_ASC_NODE = 228.4306
ARG_OF_PERICENTER = 259.0685
MEAN_ANOMALY   = 244.1259

EPHEMERIS_TYPE = 0
CLASSIFICATION_TYPE = U
NORAD_CAT_ID   = 66509
ELEMENT_SET_NO = 999
REV_AT_EPOCH   = 286
BSTAR          = -.48931E-2
MEAN_MOTION_DOT = -.1766269E-1
MEAN_MOTION_DDOT = .86607E-3

CCSDS_OMM_VERS = 2.0
CREATION_DATE  = 
ORIGINATOR     = 

OBJECT_NAME    = STARLINK-35600
OBJECT_ID      = 2025-263AB
CENTER_NAME    = EARTH
REF_FRAME      = TEME
TIME_SYSTEM    = UTC
MEAN_ELEMENT_THEORY = SGP/SGP4

EPOCH          = 2025-11-25T12:00:05.998752
MEAN_MOTION    = 15.92926637
ECCENTRICITY   = .0001749
INCLINATION    = 42.9988
RA_OF_ASC_NODE = 228.4529
ARG_OF_PERICENTER = 262.3939
MEAN_ANOMALY   = 232.0652

EPHEMERIS_TYPE = 0
CLASSIFICATION_TYPE = U
NORAD_CAT_ID   = 66510
ELEMENT_SET_NO = 999
REV_AT_EPOCH   = 286
BSTAR          = -.48448E-2
MEAN_MOTION_DOT = -.174053E-1
MEAN_MOTION_DDOT = .84207E-3

