STARLINK-35816          
1 66499U 25263Q   25329.50006943 -.01592903  71304-3 -44973-2 0  9998
2 66499  42.9987 228.5168 0001799 266.5783 202.7843 15.92634309  2864
STARLINK-35894          
1 66500U 25263R   25329.50006943 -.01541125  67060-3 -43631-2 0  9995
2 66500  42.9987 228.5234 0001803 267.8998 198.8919 15.92574219  2861
STARLINK-35897          
1 66501U 25263S   25329.50006943 -.01639611  75236-3 -46191-2 0  9992
2 66501  42.9988 228.5102 0001911 270.3594 201.6434 15.92682462  2863
STARLINK-35922          
1 66502U 25263T   25329.50006943 -.01688697  79518-3 -47351-2 0  9997
2 66502  42.9990 228.4893 0001788 271.8265 208.4898 15.92779969  2864
STARLINK-35917          
1 66503U 25263U   25329.25004630 -.01645811  76465-3 -44134-2 0  9996
2 66503  42.9985 230.0344 0001726 273.5222 216.7909 15.93619469  2823
STARLINK-35916          
1 66504U 25263V   25329.50006943 -.02315652  14400-2 -64340-2 0  9993
2 66504  42.9987 228.4676 0001641 261.5285 227.2074 15.93028828  2864
STARLINK-34766          
1 66505U 25263W   25329.50006943 -.01681373  78837-3 -47290-2 0  9999
2 66505  42.9990 228.5020 0001770 265.8940 209.3758 15.92720706  2864
STARLINK-34765          
1 66506U 25263X   25329.50006943 -.01689657  79581-3 -47444-2 0  9991
2 66506  42.9990 228.4964 0001804 264.3833 213.1081 15.92753320  2864
STARLINK-34767          
1 66507U 25263Y   25329.50006943 -.01713816  81739-3 -47992-2 0  9993
2 66507  42.9993 228.4811 0001800 264.4731 219.0742 15.92808493  2864
STARLINK-35608          
1 66508U 25263Z   25329.50006943 -.01708350  81316-3 -47659-2 0  9992
2 66508  42.9988 228.4615 0001486 258.5234 232.6419 15.92880412  2866
STARLINK-35598          
1 66509U 25263AA  25329.50006943 -.01766269  86607-3 -48931-2 0  9998
2 66509  42.9985 228.4306 0001654 259.0685 244.1259 15.93021383  2869
STARLINK-35600          
1 66510U 25263AB  25329.50006943 -.01740530  84207-3 -48448-2 0  9990
2 66510  42.9988 228.4529 0001749 262.3939 232.0652 15.92926637  2863
